LEMUR-2-FINNIAN         
1 66782U 25276DX  26156.00847169  .00008271  00000+0  66508-3 0  9991
2 66782  97.5250 227.3906 0008300 125.9633 234.2363 15.00218347 18179
LEMUR-2-STARLIGHT       
1 66783U 25276DY  26156.48811823  .00007056  00000+0  58673-3 0  9996
2 66783  97.5271 227.5253 0015221 161.9494 198.2273 14.98912924 28443
LEMUR-2-TARTIFLETTE     
1 66784U 25276DZ  26156.48680367  .00008497  00000+0  70541-3 0  9992
2 66784  97.5272 227.5294 0013842 168.1094 192.0459 14.98930264 28447
LEMUR-2-VUKASIN         
1 66785U 25276EA  26156.42386155  .00006427  00000+0  51801-3 0  9994
2 66785  97.5301 227.7376 0006187 152.0533 208.1025 15.00227273 28382
LEMUR-2-HOTSPUR-TOM     
1 66786U 25276EB  26156.01110558  .00008454  00000+0  70400-3 0  9990
2 66786  97.5240 227.0560 0015058 165.6469 194.5185 14.98800296 28303
LEMUR-2-MYRA            
1 66787U 25276EC  26156.45424146  .00006546  00000+0  52847-3 0  9995
2 66787  97.5221 227.7217 0015187 180.5755 179.5454 15.00080983 28451
LEMUR-2 FIKRETDENGIZ    
1 67363U 26004A   26154.55319882  .00004718  00000+0  51674-3 0  9991
2 67363  97.8015 153.3224 0008838 173.3369 186.7966 14.88221873 21253
TWILIGHT-1 OBJECT B     
1 67364U 26004B   26156.45550541  .00002006  00000+0  22621-3 0  9990
2 67364  97.8060 155.2148 0009119 158.7603 201.3994 14.87660452 21547
LEMUR-2-SONNENBLUME     
1 67367U 26004E   26156.48505554  .00003414  00000+0  37530-3 0  9999
2 67367  97.7984 155.2095 0008129 169.9945 190.1435 14.88255227 21555
LEMUR-2-WOBLER          
1 67368U 26004F   26156.27836749  .00004528  00000+0  49365-3 0  9996
2 67368  97.8041 155.1164 0008608 159.5144 200.6420 14.88430554 21521
